[{"OBJECT_NAME":"ONEWEB-0413","OBJECT_ID":"2021-132X","EPOCH":"2026-01-09T05:22:34.482144","MEAN_MOTION":13.18687038,"ECCENTRICITY":0.00017961,"INCLINATION":87.9172,"RA_OF_ASC_NODE":7.0303,"ARG_OF_PERICENTER":77.3134,"MEAN_ANOMALY":282.8199,"EPHEMERIS_TYPE":0,"CLASSIFICATION_TYPE":"U","NORAD_CAT_ID":50490,"ELEMENT_SET_NO":999,"REV_AT_EPOCH":20064,"BSTAR":-2.6603527e-5,"MEAN_MOTION_DOT":2.0e-8,"MEAN_MOTION_DDOT":0},{"OBJECT_NAME":"ONEWEB-0414","OBJECT_ID":"2021-132Y","EPOCH":"2026-01-09T06:50:26.331072","MEAN_MOTION":13.18684407,"ECCENTRICITY":0.00019478,"INCLINATION":87.9182,"RA_OF_ASC_NODE":6.9842,"ARG_OF_PERICENTER":84.9581,"MEAN_ANOMALY":275.1774,"EPHEMERIS_TYPE":0,"CLASSIFICATION_TYPE":"U","NORAD_CAT_ID":50491,"ELEMENT_SET_NO":999,"REV_AT_EPOCH":20068,"BSTAR":-0.00020830313,"MEAN_MOTION_DOT":-6.9e-7,"MEAN_MOTION_DDOT":0},{"OBJECT_NAME":"ONEWEB-0417","OBJECT_ID":"2021-132Z","EPOCH":"2026-01-09T05:13:03.135360","MEAN_MOTION":13.18685887,"ECCENTRICITY":0.00018956,"INCLINATION":87.9177,"RA_OF_ASC_NODE":7.0308,"ARG_OF_PERICENTER":94.0451,"MEAN_ANOMALY":266.0898,"EPHEMERIS_TYPE":0,"CLASSIFICATION_TYPE":"U","NORAD_CAT_ID":50492,"ELEMENT_SET_NO":999,"REV_AT_EPOCH":20065,"BSTAR":-0.00015787986,"MEAN_MOTION_DOT":-4.9e-7,"MEAN_MOTION_DDOT":0},{"OBJECT_NAME":"ONEWEB-0418","OBJECT_ID":"2021-132AA","EPOCH":"2026-01-09T05:27:06.915168","MEAN_MOTION":13.18685534,"ECCENTRICITY":0.00020394,"INCLINATION":87.9181,"RA_OF_ASC_NODE":7.0137,"ARG_OF_PERICENTER":100.4658,"MEAN_ANOMALY":259.6704,"EPHEMERIS_TYPE":0,"CLASSIFICATION_TYPE":"U","NORAD_CAT_ID":50493,"ELEMENT_SET_NO":999,"REV_AT_EPOCH":20071,"BSTAR":-0.0001199128,"MEAN_MOTION_DOT":-3.4e-7,"MEAN_MOTION_DDOT":0},{"OBJECT_NAME":"ONEWEB-0419","OBJECT_ID":"2021-132AB","EPOCH":"2026-01-09T05:53:26.123136","MEAN_MOTION":13.18684687,"ECCENTRICITY":0.00016953,"INCLINATION":87.918,"RA_OF_ASC_NODE":7.01,"ARG_OF_PERICENTER":98.7127,"MEAN_ANOMALY":261.4197,"EPHEMERIS_TYPE":0,"CLASSIFICATION_TYPE":"U","NORAD_CAT_ID":50494,"ELEMENT_SET_NO":999,"REV_AT_EPOCH":20063,"BSTAR":2.7562267e-5,"MEAN_MOTION_DOT":2.4e-7,"MEAN_MOTION_DDOT":0},{"OBJECT_NAME":"ONEWEB-0420","OBJECT_ID":"2021-132AC","EPOCH":"2026-01-09T06:52:49.533888","MEAN_MOTION":13.18685966,"ECCENTRICITY":0.00016592,"INCLINATION":87.9182,"RA_OF_ASC_NODE":7.014,"ARG_OF_PERICENTER":82.9874,"MEAN_ANOMALY":277.1447,"EPHEMERIS_TYPE":0,"CLASSIFICATION_TYPE":"U","NORAD_CAT_ID":50495,"ELEMENT_SET_NO":999,"REV_AT_EPOCH":20063,"BSTAR":-3.5016127e-5,"MEAN_MOTION_DOT":-1.0e-8,"MEAN_MOTION_DDOT":0},{"OBJECT_NAME":"ONEWEB-0421","OBJECT_ID":"2021-132AD","EPOCH":"2026-01-09T06:43:19.798464","MEAN_MOTION":13.18685004,"ECCENTRICITY":0.00020108,"INCLINATION":87.9181,"RA_OF_ASC_NODE":7.0077,"ARG_OF_PERICENTER":83.3798,"MEAN_ANOMALY":276.7563,"EPHEMERIS_TYPE":0,"CLASSIFICATION_TYPE":"U","NORAD_CAT_ID":50496,"ELEMENT_SET_NO":999,"REV_AT_EPOCH":20067,"BSTAR":-0.00021906337,"MEAN_MOTION_DOT":-7.3e-7,"MEAN_MOTION_DDOT":0},{"OBJECT_NAME":"ONEWEB-0424","OBJECT_ID":"2021-132AE","EPOCH":"2026-01-09T05:46:18.579648","MEAN_MOTION":13.18684554,"ECCENTRICITY":0.00015397,"INCLINATION":87.918,"RA_OF_ASC_NODE":7.0112,"ARG_OF_PERICENTER":99.1414,"MEAN_ANOMALY":260.9892,"EPHEMERIS_TYPE":0,"CLASSIFICATION_TYPE":"U","NORAD_CAT_ID":50497,"ELEMENT_SET_NO":999,"REV_AT_EPOCH":20069,"BSTAR":3.1356952e-5,"MEAN_MOTION_DOT":2.5e-7,"MEAN_MOTION_DDOT":0},{"OBJECT_NAME":"ONEWEB-0426","OBJECT_ID":"2021-132AF","EPOCH":"2026-01-09T06:38:34.158336","MEAN_MOTION":13.18685063,"ECCENTRICITY":0.00024337,"INCLINATION":87.9183,"RA_OF_ASC_NODE":6.9955,"ARG_OF_PERICENTER":89.3185,"MEAN_ANOMALY":270.8226,"EPHEMERIS_TYPE":0,"CLASSIFICATION_TYPE":"U","NORAD_CAT_ID":50498,"ELEMENT_SET_NO":999,"REV_AT_EPOCH":20064,"BSTAR":-8.2417478e-5,"MEAN_MOTION_DOT":-2.0e-7,"MEAN_MOTION_DDOT":0},{"OBJECT_NAME":"ONEWEB-0427","OBJECT_ID":"2021-132AG","EPOCH":"2026-01-09T05:43:56.840448","MEAN_MOTION":13.18686909,"ECCENTRICITY":0.00018985,"INCLINATION":87.9179,"RA_OF_ASC_NODE":6.9901,"ARG_OF_PERICENTER":94.5824,"MEAN_ANOMALY":265.5525,"EPHEMERIS_TYPE":0,"CLASSIFICATION_TYPE":"U","NORAD_CAT_ID":50499,"ELEMENT_SET_NO":999,"REV_AT_EPOCH":20066,"BSTAR":0.00014318741,"MEAN_MOTION_DOT":6.9e-7,"MEAN_MOTION_DDOT":0},{"OBJECT_NAME":"ONEWEB-0429","OBJECT_ID":"2021-132AH","EPOCH":"2026-01-09T05:24:55.877472","MEAN_MOTION":13.18685878,"ECCENTRICITY":0.00016907,"INCLINATION":87.9181,"RA_OF_ASC_NODE":7.0252,"ARG_OF_PERICENTER":84.4626,"MEAN_ANOMALY":275.6699,"EPHEMERIS_TYPE":0,"CLASSIFICATION_TYPE":"U","NORAD_CAT_ID":50500,"ELEMENT_SET_NO":999,"REV_AT_EPOCH":20063,"BSTAR":-0.0001156381,"MEAN_MOTION_DOT":-3.3e-7,"MEAN_MOTION_DDOT":0},{"OBJECT_NAME":"ONEWEB-0430","OBJECT_ID":"2021-132AJ","EPOCH":"2026-01-09T05:08:18.419712","MEAN_MOTION":13.18684964,"ECCENTRICITY":0.0001501,"INCLINATION":87.9185,"RA_OF_ASC_NODE":7.0238,"ARG_OF_PERICENTER":89.6223,"MEAN_ANOMALY":270.5081,"EPHEMERIS_TYPE":0,"CLASSIFICATION_TYPE":"U","NORAD_CAT_ID":50501,"ELEMENT_SET_NO":999,"REV_AT_EPOCH":20067,"BSTAR":-0.00017984729,"MEAN_MOTION_DOT":-5.8e-7,"MEAN_MOTION_DDOT":0},{"OBJECT_NAME":"ONEWEB-0432","OBJECT_ID":"2021-132AK","EPOCH":"2026-01-09T00:26:44.035872","MEAN_MOTION":13.18678856,"ECCENTRICITY":0.00019514,"INCLINATION":87.9176,"RA_OF_ASC_NODE":7.0329,"ARG_OF_PERICENTER":116.3457,"MEAN_ANOMALY":243.7876,"EPHEMERIS_TYPE":0,"CLASSIFICATION_TYPE":"U","NORAD_CAT_ID":50502,"ELEMENT_SET_NO":999,"REV_AT_EPOCH":20060,"BSTAR":4.6062821e-5,"MEAN_MOTION_DOT":3.1e-7,"MEAN_MOTION_DDOT":0},{"OBJECT_NAME":"ONEWEB-0440","OBJECT_ID":"2021-132AL","EPOCH":"2026-01-09T05:36:49.093056","MEAN_MOTION":13.18685307,"ECCENTRICITY":0.00019424,"INCLINATION":87.9181,"RA_OF_ASC_NODE":7.0094,"ARG_OF_PERICENTER":76.2947,"MEAN_ANOMALY":283.8401,"EPHEMERIS_TYPE":0,"CLASSIFICATION_TYPE":"U","NORAD_CAT_ID":50503,"ELEMENT_SET_NO":999,"REV_AT_EPOCH":20062,"BSTAR":7.8434474e-5,"MEAN_MOTION_DOT":4.4e-7,"MEAN_MOTION_DDOT":0},{"OBJECT_NAME":"ONEWEB-0450","OBJECT_ID":"2021-132AM","EPOCH":"2026-01-09T05:27:31.275648","MEAN_MOTION":13.18686838,"ECCENTRICITY":0.00015276,"INCLINATION":87.9175,"RA_OF_ASC_NODE":7.031,"ARG_OF_PERICENTER":81.5211,"MEAN_ANOMALY":278.6094,"EPHEMERIS_TYPE":0,"CLASSIFICATION_TYPE":"U","NORAD_CAT_ID":50504,"ELEMENT_SET_NO":999,"REV_AT_EPOCH":20065,"BSTAR":-8.9759024e-5,"MEAN_MOTION_DOT":-2.2e-7,"MEAN_MOTION_DDOT":0},{"OBJECT_NAME":"ONEWEB-0410","OBJECT_ID":"2022-012A","EPOCH":"2026-01-09T03:08:39.124032","MEAN_MOTION":13.17647883,"ECCENTRICITY":0.00030909,"INCLINATION":87.9097,"RA_OF_ASC_NODE":37.4616,"ARG_OF_PERICENTER":108.0398,"MEAN_ANOMALY":252.1071,"EPHEMERIS_TYPE":0,"CLASSIFICATION_TYPE":"U","NORAD_CAT_ID":51622,"ELEMENT_SET_NO":999,"REV_AT_EPOCH":19275,"BSTAR":3.0720675e-5,"MEAN_MOTION_DOT":2.5e-7,"MEAN_MOTION_DDOT":0},{"OBJECT_NAME":"ONEWEB-0411","OBJECT_ID":"2022-012B","EPOCH":"2026-01-09T04:32:42.356832","MEAN_MOTION":13.10373359,"ECCENTRICITY":0.00012629,"INCLINATION":87.8782,"RA_OF_ASC_NODE":67.9609,"ARG_OF_PERICENTER":112.4933,"MEAN_ANOMALY":247.6329,"EPHEMERIS_TYPE":0,"CLASSIFICATION_TYPE":"U","NORAD_CAT_ID":51623,"ELEMENT_SET_NO":999,"REV_AT_EPOCH":18846,"BSTAR":-0.0016609197,"MEAN_MOTION_DOT":-5.67e-6,"MEAN_MOTION_DDOT":0}]
