ONEWEB-0413             
1 50490U 21132X   26009.22401021  .00000002  00000+0 -26604-4 0  9990
2 50490  87.9172   7.0303 0001796  77.3134 282.8199 13.18687038200641
ONEWEB-0414             
1 50491U 21132Y   26009.28502698 -.00000069  00000+0 -20830-3 0  9997
2 50491  87.9182   6.9842 0001947  84.9581 275.1774 13.18684407200682
ONEWEB-0417             
1 50492U 21132Z   26009.21739740 -.00000049  00000+0 -15788-3 0  9995
2 50492  87.9177   7.0308 0001895  94.0451 266.0898 13.18685887200652
ONEWEB-0418             
1 50493U 21132AA  26009.22716337 -.00000034  00000+0 -11991-3 0  9990
2 50493  87.9181   7.0137 0002039 100.4658 259.6704 13.18685534200710
ONEWEB-0419             
1 50494U 21132AB  26009.24544124  .00000024  00000+0  27562-4 0  9995
2 50494  87.9180   7.0100 0001695  98.7127 261.4197 13.18684687200633
ONEWEB-0420             
1 50495U 21132AC  26009.28668442 -.00000001  00000+0 -35016-4 0  9990
2 50495  87.9182   7.0140 0001659  82.9874 277.1447 13.18685966200637
ONEWEB-0421             
1 50496U 21132AD  26009.28009026 -.00000073  00000+0 -21906-3 0  9999
2 50496  87.9181   7.0077 0002010  83.3798 276.7563 13.18685004200679
ONEWEB-0424             
1 50497U 21132AE  26009.24049282  .00000025  00000+0  31357-4 0  9991
2 50497  87.9180   7.0112 0001539  99.1414 260.9892 13.18684554200695
ONEWEB-0426             
1 50498U 21132AF  26009.27678424 -.00000020  00000+0 -82417-4 0  9991
2 50498  87.9183   6.9955 0002433  89.3185 270.8226 13.18685063200644
ONEWEB-0427             
1 50499U 21132AG  26009.23885232  .00000069  00000+0  14319-3 0  9991
2 50499  87.9179   6.9901 0001898  94.5824 265.5525 13.18686909200668
ONEWEB-0429             
1 50500U 21132AH  26009.22564673 -.00000033  00000+0 -11564-3 0  9998
2 50500  87.9181   7.0252 0001690  84.4626 275.6699 13.18685878200638
ONEWEB-0430             
1 50501U 21132AJ  26009.21410208 -.00000058  00000+0 -17985-3 0  9992
2 50501  87.9185   7.0238 0001501  89.6223 270.5081 13.18684964200676
ONEWEB-0432             
1 50502U 21132AK  26009.01856523  .00000031  00000+0  46063-4 0  9994
2 50502  87.9176   7.0329 0001951 116.3457 243.7876 13.18678856200604
ONEWEB-0440             
1 50503U 21132AL  26009.23390154  .00000044  00000+0  78434-4 0  9993
2 50503  87.9181   7.0094 0001942  76.2947 283.8401 13.18685307200628
ONEWEB-0450             
1 50504U 21132AM  26009.22744532 -.00000022  00000+0 -89759-4 0  9996
2 50504  87.9175   7.0310 0001527  81.5211 278.6094 13.18686838200658
ONEWEB-0410             
1 51622U 22012A   26009.13100838  .00000025  00000+0  30721-4 0  9997
2 51622  87.9097  37.4616 0003090 108.0398 252.1071 13.17647883192756
ONEWEB-0411             
1 51623U 22012B   26009.18937913 -.00000567  00000+0 -16609-2 0  9995
2 51623  87.8782  67.9609 0001262 112.4933 247.6329 13.10373359188465
